start=new Date('2022-04-06T00:00:00.000Z').valueOf();
sats=[{"ELEMENT_SET_NO":"999","CENTER_NAME":"EARTH","BSTAR":"0.00103070000000","EPHEMERIS_TYPE":"0","REV_AT_EPOCH":"371","CLASSIFICATION_TYPE":"U","TIME_SYSTEM":"UTC","RCS_SIZE":"LARGE","MEAN_MOTION_DOT":"0.00058437","DECAY_DATE":null,"OBJECT_NAME":"STARLINK-3355","SEMIMAJOR_AXIS":"6795.267","SITE":"AFETR","OBJECT_ID":"2022-001F","ECCENTRICITY":"0.00019190","MEAN_ANOMALY":"152.6666","PERIOD":"92.912","ARG_OF_PERICENTER":"41.5066","REF_FRAME":"TEME","GP_ID":"200545571","MEAN_MOTION":"15.49861652","APOAPSIS":"418.436","COUNTRY_CODE":"US","MEAN_ELEMENT_THEORY":"SGP4","FILE":"3389912","OBJECT_TYPE":"PAYLOAD","NORAD_CAT_ID":"50808","LAUNCH_DATE":"2022-01-06","PERIAPSIS":"415.828","EPOCH":"2022-04-05T22:00:00.999936","RA_OF_ASC_NODE":"120.2547","INCLINATION":"53.2121","TLE_LINE2":"2 50808  53.2121 120.2547 0001919  41.5066 152.6666 15.49861652  3710","MEAN_MOTION_DDOT":"0.0000000000000","TLE_LINE1":"1 50808U 22001F   22095.91667824  .00058437  00000-0  10307-2 0  9997"},{"OBJECT_ID":"2022-001G","SITE":"AFETR","SEMIMAJOR_AXIS":"6795.268","ECCENTRICITY":"0.00014730","OBJECT_NAME":"STARLINK-3232","DECAY_DATE":null,"GP_ID":"200545823","MEAN_MOTION":"15.49861473","MEAN_ANOMALY":"146.3095","PERIOD":"92.912","ARG_OF_PERICENTER":"40.2707","REF_FRAME":"TEME","CENTER_NAME":"EARTH","ELEMENT_SET_NO":"999","BSTAR":"0.00036522000000","RCS_SIZE":"LARGE","TIME_SYSTEM":"UTC","MEAN_MOTION_DOT":"0.00020313","CLASSIFICATION_TYPE":"U","REV_AT_EPOCH":"370","EPHEMERIS_TYPE":"0","EPOCH":"2022-04-05T22:00:00.999936","RA_OF_ASC_NODE":"120.2560","INCLINATION":"53.2133","TLE_LINE2":"2 50809  53.2133 120.2560 0001473  40.2707 146.3095 15.49861473  3708","MEAN_MOTION_DDOT":"0.0000000000000","TLE_LINE1":"1 50809U 22001G   22095.91667824  .00020313  00000-0  36522-3 0  9998","COUNTRY_CODE":"US","MEAN_ELEMENT_THEORY":"SGP4","FILE":"3389912","APOAPSIS":"418.134","LAUNCH_DATE":"2022-01-06","PERIAPSIS":"416.132","OBJECT_TYPE":"PAYLOAD","NORAD_CAT_ID":"50809"},{"FILE":"3389912","MEAN_ELEMENT_THEORY":"SGP4","COUNTRY_CODE":"US","APOAPSIS":"418.417","PERIAPSIS":"415.998","LAUNCH_DATE":"2022-01-06","NORAD_CAT_ID":"50810","OBJECT_TYPE":"PAYLOAD","RA_OF_ASC_NODE":"120.2536","EPOCH":"2022-04-05T22:00:00.999936","TLE_LINE2":"2 50810  53.2138 120.2536 0001780  44.0968 157.8369 15.49836000  3710","MEAN_MOTION_DDOT":"0.0000000000000","TLE_LINE1":"1 50810U 22001H   22095.91667824  .00059384  00000-0  10481-2 0  9995","INCLINATION":"53.2138","BSTAR":"0.00104810000000","CENTER_NAME":"EARTH","ELEMENT_SET_NO":"999","MEAN_MOTION_DOT":"0.00059384","RCS_SIZE":"LARGE","TIME_SYSTEM":"UTC","CLASSIFICATION_TYPE":"U","REV_AT_EPOCH":"371","EPHEMERIS_TYPE":"0","ECCENTRICITY":"0.00017800","OBJECT_ID":"2022-001H","SEMIMAJOR_AXIS":"6795.342","SITE":"AFETR","OBJECT_NAME":"STARLINK-3348","DECAY_DATE":null,"MEAN_MOTION":"15.49836000","GP_ID":"200546573","REF_FRAME":"TEME","MEAN_ANOMALY":"157.8369","PERIOD":"92.913","ARG_OF_PERICENTER":"44.0968"},{"REV_AT_EPOCH":"371","EPHEMERIS_TYPE":"0","CLASSIFICATION_TYPE":"U","MEAN_MOTION_DOT":"0.00059722","TIME_SYSTEM":"UTC","RCS_SIZE":"LARGE","BSTAR":"0.00105400000000","ELEMENT_SET_NO":"999","CENTER_NAME":"EARTH","REF_FRAME":"TEME","MEAN_ANOMALY":"173.3519","PERIOD":"92.913","ARG_OF_PERICENTER":"43.7941","MEAN_MOTION":"15.49835200","GP_ID":"200544822","DECAY_DATE":null,"OBJECT_NAME":"STARLINK-3347","ECCENTRICITY":"0.00020610","SEMIMAJOR_AXIS":"6795.345","SITE":"AFETR","OBJECT_ID":"2022-001J","NORAD_CAT_ID":"50811","OBJECT_TYPE":"PAYLOAD","LAUNCH_DATE":"2022-01-06","PERIAPSIS":"415.809","APOAPSIS":"418.610","MEAN_ELEMENT_THEORY":"SGP4","FILE":"3389912","COUNTRY_CODE":"US","MEAN_MOTION_DDOT":"0.0000000000000","TLE_LINE2":"2 50811  53.2149 120.2374 0002061  43.7941 173.3519 15.49835200  3714","TLE_LINE1":"1 50811U 22001J   22095.91667824  .00059722  00000-0  10540-2 0  9998","INCLINATION":"53.2149","RA_OF_ASC_NODE":"120.2374","EPOCH":"2022-04-05T22:00:00.999936"},{"EPOCH":"2022-04-05T22:00:00.999936","RA_OF_ASC_NODE":"120.2524","INCLINATION":"53.2137","TLE_LINE2":"2 50812  53.2137 120.2524 0001673  42.2989 115.8955 15.49849287  3718","TLE_LINE1":"1 50812U 22001K   22095.91667824  .00028962  00000-0  51698-3 0  9991","MEAN_MOTION_DDOT":"0.0000000000000","APOAPSIS":"418.305","COUNTRY_CODE":"US","MEAN_ELEMENT_THEORY":"SGP4","FILE":"3389912","OBJECT_TYPE":"PAYLOAD","NORAD_CAT_ID":"50812","LAUNCH_DATE":"2022-01-06","PERIAPSIS":"416.032","OBJECT_NAME":"STARLINK-3338","DECAY_DATE":null,"OBJECT_ID":"2022-001K","SITE":"AFETR","SEMIMAJOR_AXIS":"6795.304","ECCENTRICITY":"0.00016730","PERIOD":"92.912","MEAN_ANOMALY":"115.8955","ARG_OF_PERICENTER":"42.2989","REF_FRAME":"TEME","GP_ID":"200545072","MEAN_MOTION":"15.49849287","CENTER_NAME":"EARTH","ELEMENT_SET_NO":"999","BSTAR":"0.00051698000000","CLASSIFICATION_TYPE":"U","REV_AT_EPOCH":"371","EPHEMERIS_TYPE":"0","RCS_SIZE":"LARGE","TIME_SYSTEM":"UTC","MEAN_MOTION_DOT":"0.00028962"},{"TLE_LINE2":"2 50813  53.2151 120.2373 0001997  51.5777 171.2248 15.49927822  3717","TLE_LINE1":"1 50813U 22001L   22095.91667824  .00009618  00000-0  17694-3 0  9997","MEAN_MOTION_DDOT":"0.0000000000000","INCLINATION":"53.2151","RA_OF_ASC_NODE":"120.2373","EPOCH":"2022-04-05T22:00:00.999936","NORAD_CAT_ID":"50813","OBJECT_TYPE":"PAYLOAD","PERIAPSIS":"415.582","LAUNCH_DATE":"2022-01-06","APOAPSIS":"418.296","FILE":"3389912","MEAN_ELEMENT_THEORY":"SGP4","COUNTRY_CODE":"US","REF_FRAME":"TEME","PERIOD":"92.908","MEAN_ANOMALY":"171.2248","ARG_OF_PERICENTER":"51.5777","MEAN_MOTION":"15.49927822","GP_ID":"200546323","DECAY_DATE":null,"OBJECT_NAME":"STARLINK-3349","ECCENTRICITY":"0.00019970","SEMIMAJOR_AXIS":"6795.074","SITE":"AFETR","OBJECT_ID":"2022-001L","REV_AT_EPOCH":"371","EPHEMERIS_TYPE":"0","CLASSIFICATION_TYPE":"U","MEAN_MOTION_DOT":"0.00009618","TIME_SYSTEM":"UTC","RCS_SIZE":"LARGE","BSTAR":"0.00017694000000","ELEMENT_SET_NO":"999","CENTER_NAME":"EARTH"},{"BSTAR":"-0.03304600000000","CENTER_NAME":"EARTH","ELEMENT_SET_NO":"999","MEAN_MOTION_DOT":"-0.00720375","RCS_SIZE":"LARGE","TIME_SYSTEM":"UTC","CLASSIFICATION_TYPE":"U","EPHEMERIS_TYPE":"0","REV_AT_EPOCH":"365","ECCENTRICITY":"0.00013050","OBJECT_ID":"2022-001M","SEMIMAJOR_AXIS":"6876.838","SITE":"AFETR","OBJECT_NAME":"STARLINK-3324","DECAY_DATE":null,"MEAN_MOTION":"15.22367623","GP_ID":"200546074","REF_FRAME":"TEME","PERIOD":"94.590","ARG_OF_PERICENTER":"57.4203","MEAN_ANOMALY":"319.9855","FILE":"3389912","MEAN_ELEMENT_THEORY":"SGP4","COUNTRY_CODE":"US","APOAPSIS":"499.601","LAUNCH_DATE":"2022-01-06","PERIAPSIS":"497.806","NORAD_CAT_ID":"50814","OBJECT_TYPE":"PAYLOAD","RA_OF_ASC_NODE":"125.9249","EPOCH":"2022-04-05T22:00:00.999936","TLE_LINE2":"2 50814  53.2174 125.9249 0001305  57.4203 319.9855 15.22367623  3655","MEAN_MOTION_DDOT":"0.0000000000000","TLE_LINE1":"1 50814U 22001M   22095.91667824 -.00720375  00000-0 -33046-1 0  9997","INCLINATION":"53.2174"},{"GP_ID":"200545322","MEAN_MOTION":"15.21984040","PERIOD":"94.613","ARG_OF_PERICENTER":"42.5112","MEAN_ANOMALY":"286.9294","REF_FRAME":"TEME","SEMIMAJOR_AXIS":"6877.994","SITE":"AFETR","OBJECT_ID":"2022-001N","ECCENTRICITY":"0.00015990","DECAY_DATE":null,"OBJECT_NAME":"STARLINK-3234","TIME_SYSTEM":"UTC","RCS_SIZE":"LARGE","MEAN_MOTION_DOT":"-0.00719967","REV_AT_EPOCH":"365","EPHEMERIS_TYPE":"0","CLASSIFICATION_TYPE":"U","ELEMENT_SET_NO":"999","CENTER_NAME":"EARTH","BSTAR":"-0.03340200000000","INCLINATION":"53.2174","MEAN_MOTION_DDOT":"0.0000000000000","TLE_LINE2":"2 50815  53.2174 125.9266 0001599  42.5112 286.9294 15.21984040  3651","TLE_LINE1":"1 50815U 22001N   22095.91667824 -.00719967  00000-0 -33402-1 0  9999","EPOCH":"2022-04-05T22:00:00.999936","RA_OF_ASC_NODE":"125.9266","LAUNCH_DATE":"2022-01-06","PERIAPSIS":"498.759","OBJECT_TYPE":"PAYLOAD","NORAD_CAT_ID":"50815","COUNTRY_CODE":"US","MEAN_ELEMENT_THEORY":"SGP4","FILE":"3389912","APOAPSIS":"500.959"},{"EPOCH":"2022-04-05T22:00:00.999936","RA_OF_ASC_NODE":"125.9227","INCLINATION":"53.2172","TLE_LINE2":"2 50816  53.2172 125.9227 0001726  45.0143 124.1588 15.20631069  3671","TLE_LINE1":"1 50816U 22001P   22095.91667824 -.00721721  00000-0 -34852-1 0  9991","MEAN_MOTION_DDOT":"0.0000000000000","APOAPSIS":"505.126","COUNTRY_CODE":"US","FILE":"3389912","MEAN_ELEMENT_THEORY":"SGP4","OBJECT_TYPE":"PAYLOAD","NORAD_CAT_ID":"50816","PERIAPSIS":"502.750","LAUNCH_DATE":"2022-01-06","OBJECT_NAME":"STARLINK-3342","DECAY_DATE":null,"OBJECT_ID":"2022-001P","SITE":"AFETR","SEMIMAJOR_AXIS":"6882.073","ECCENTRICITY":"0.00017260","PERIOD":"94.698","MEAN_ANOMALY":"124.1588","ARG_OF_PERICENTER":"45.0143","REF_FRAME":"TEME","GP_ID":"200545572","MEAN_MOTION":"15.20631069","CENTER_NAME":"EARTH","ELEMENT_SET_NO":"999","BSTAR":"-0.03485200000000","CLASSIFICATION_TYPE":"U","REV_AT_EPOCH":"367","EPHEMERIS_TYPE":"0","RCS_SIZE":"LARGE","TIME_SYSTEM":"UTC","MEAN_MOTION_DOT":"-0.00721721"},{"TLE_LINE1":"1 50817U 22001Q   22095.91667824 -.00720117  00000-0 -33283-1 0  9997","TLE_LINE2":"2 50817  53.2174 125.9261 0001628  40.1270 305.3404 15.22111893  3670","MEAN_MOTION_DDOT":"0.0000000000000","INCLINATION":"53.2174","RA_OF_ASC_NODE":"125.9261","EPOCH":"2022-04-05T22:00:00.999936","PERIAPSIS":"498.354","LAUNCH_DATE":"2022-01-06","NORAD_CAT_ID":"50817","OBJECT_TYPE":"PAYLOAD","MEAN_ELEMENT_THEORY":"SGP4","FILE":"3389912","COUNTRY_CODE":"US","APOAPSIS":"500.593","MEAN_MOTION":"15.22111893","GP_ID":"200545824","REF_FRAME":"TEME","MEAN_ANOMALY":"305.3404","PERIOD":"94.605","ARG_OF_PERICENTER":"40.1270","ECCENTRICITY":"0.00016280","OBJECT_ID":"2022-001Q","SEMIMAJOR_AXIS":"6877.609","SITE":"AFETR","OBJECT_NAME":"STARLINK-3341","DECAY_DATE":null,"MEAN_MOTION_DOT":"-0.00720117","RCS_SIZE":"LARGE","TIME_SYSTEM":"UTC","CLASSIFICATION_TYPE":"U","EPHEMERIS_TYPE":"0","REV_AT_EPOCH":"367","BSTAR":"-0.03328300000000","CENTER_NAME":"EARTH","ELEMENT_SET_NO":"999"}];
